#dP2020  6 17  0  0  0.00000000      96 __u+U ITR00 FIT  IAC
## 2110 259200.00000000   900.00000000 59017 0.0000000000000
+  114   C01C02C03C05C06C07C08C09C10C11C12C13C14C16C19C20C21
+        C22C23C24C25C26C27C28C29C30C32C33C34C35C36C37E01E02
+        E03E04E05E07E08E09E11E12E13E14E15E18E19E21E24E25E26
+        E27E30E31E33E36G01G02G03G04G05G06G07G08G09G10G11G12
+        G13G14G15G16G17G18G19G20G21G22G24G25G26G27G28G29G30
+        G31G32J01J02J03J07R01R02R03R04R05R07R08R09R11R12R13
+        R14R15R16R17R18R19R20R21R22R23R24R26  0  0  0  0  0
++        13 13 13 13  8  8  9  8  8  7  8  8  8  8  8  8  7
++         8  8  8  7  7  8  8 10  8  8  8  8  8  8  8  4  4
++         4  4  5  5  5  5  5  4  5  4  4  4  4  4  4  5  5
++         4  5  4  4  4  3  3  3  3  3  3  3  3  3  3  4  3
++         3  4  3  3  3  3  4  3  3  3  3  3  4  3  4  3  3
++         3  3  8  8  8 15  6  5  5  6  6  5  5  5  5  5  6
++         6  6  6  5  5  6  6  6  9  6  5  8  0  0  0  0  0
%c M  cc GPS ccc cccc cccc cccc cccc ccccc ccccc ccccc ccccc
%c cc cc ccc ccc cccc cccc cccc cccc ccccc ccccc ccccc ccccc
%f  0.0000000  0.000000000  0.00000000000  0.000000000000000
%f  0.0000000  0.000000000  0.00000000000  0.000000000000000
%i    0    0    0    0      0      0      0      0         0
%i    0    0    0    0      0      0      0      0         0
/* INFORMATION & ANALYSIS CENTER (IAC)            RAPID DATA
/* S/V CLOCKS ARE ALIGNED TO GNSS TIME                      
/* G:C1WC2W R:C1PC2P E:C1XC5X C:C2IC6I J:C1CC2S             
/* PCV:IGS14_2101 OL/AL:FES2004  NONE     YN ORB:CoN CLK:CoN
*  2020 06 17 13 15  0.00000000
PC01 -34355.263018  24402.405585   -552.915735   -409.974386
PC02   4443.918663  41913.928147   1364.713752    276.402038
PC03 -14831.171461  39495.771285    516.833402    858.784424
PC05  21918.355973  36021.278119   1084.980552   -472.893781
PC06  -9129.265222  35044.207027  22361.491884    756.346785
PC07 -16872.028666  21925.781492 -31725.147767     39.251802
PC08 -24224.851391  32313.041039  11623.368043   -317.219366
PC09   1631.550125  41733.423386   7408.931785    616.073699
PC10    969.796512  26623.872439 -32457.000985   -259.984761
PC11  15372.902621  -2456.257603  23215.347374   -434.142885
PC12  11260.421090  18010.875845  18111.444969    403.743538
PC13 -11656.030392  32837.596795  23647.223591    495.389995
PC14  24299.141839   4180.068742 -12977.981857    544.950682
PC16  -6301.920667  36593.306269  20236.411092   -615.769878
PC19 -19732.457595   3799.482354  19403.261862    446.991682
PC20 -25157.102106 -10808.807091   5507.441265   -851.275907
PC21  15680.985056  19560.785066  12251.943588   -539.500646
PC22  -2778.264640  16511.667048  22328.941317   -784.125449
PC23  12996.641380 -19267.566978  15448.276355   -852.686331
PC24  22092.662393   1966.955616 -16946.286893   -789.384170
PC25  24566.849821 -13237.431428   -667.277394   -654.970794
PC26   7431.123251  14336.562529 -22761.676154    721.518506
PC27  -6325.141108 -24928.867275 -10826.527881    349.043403
PC28   5894.871594 -26434.649292   6737.548042   -212.643653
PC29 -14136.847671  13003.402717 -20254.145452    243.693946
PC30 -15054.972356  -8646.601019 -21848.914334    333.332054
PC32 -15897.714347 -19435.948204 -12171.434660   -878.406827
PC33  19737.090220  -3864.310925 -19324.092896   -811.891165
PC34  15158.561091   8197.917919  21943.883451   -819.535718
PC35  -5127.690362  26568.093506  -6902.649863   -792.491925
PC36 -24941.657383  12497.871964    929.582483   -847.907985
PC37  -6369.391118 -14879.259679  22754.810721   -852.701035
PE01  23923.237994   8791.883092 -15047.732087   -879.609205
PE02 -23987.554704  -8738.953663  14974.734354    141.058761
PE03 -20445.045607 -19311.064971   9267.517646   -310.823959
PE04  19507.391642   1022.006851 -22226.248592   -547.715976
PE05  -9388.133103 -26488.804198  -9293.387238   -370.852923
PE07  -7083.283651  18138.815262  22302.496709   -396.880105
PE08 -19334.198054   -745.531887  22414.180433   6162.493150
PE09   6739.459431 -18209.712645 -22335.343523   6025.586821
PE11  15047.289116 -25243.201015   3443.719418   3518.348984
PE12  19516.271380  -9667.505973  20032.850027   5750.728070
PE13 -15067.868704  25212.676657  -3702.155641    401.661054
PE14 -21381.869713  -9843.222464 -22189.639362  -1052.763188
PE15 -19443.143131  10012.101008 -19948.045045    863.190574
PE18  14942.844362  11575.431865  14359.122587  -1153.914080
PE19  19753.987179  20768.055532  -7380.754652      5.352374
PE21   5015.789788  16015.560180 -24383.602877   -605.089069
PE24  17507.604787 -13889.988756  19404.843833   5397.841083
PE25  -4872.957052 -16036.440398  24403.394956   -512.285738
PE26  -1573.406224  25466.393414  15004.735925   3062.671970
PE27 -17165.812306  14042.500871 -19601.385861    196.551460
PE30 -29245.515706   3453.647056  -2975.875969   3818.951068
PE31  29155.435577  -3842.757842   3346.465051   -472.903711
PE33  12394.041288  11091.289737  24487.397969   -465.990022
PE36   1840.969921 -25608.819527 -14724.045977    545.791016
PG01  13816.169999 -21588.376767  -6474.436232     10.784364
PG02 -20011.299570  10708.098386 -13116.960349   -473.537156
PG03   8254.725875 -13402.372962 -21439.153580   -211.757896
PG04   1994.568603 -23528.707868 -12115.279570   -103.606664
PG05 -24584.239078   2703.899868   9807.140007    -14.832134
PG06 -16857.603388  -1697.332398 -20413.599980   -290.058728
PG07  -1926.230798 -18227.064282  19357.458117   -306.559648
PG08   9332.275171 -14837.096300  19887.226046    -37.867853
PG09  -7448.256100 -25430.178440  -1726.769568   -237.914169
PG10  21704.475642  11739.533622  10223.908652   -373.945993
PG11  12118.705728 -22400.828275   7594.165725   -246.223636
PG12  -9078.575448  12633.628897 -21742.217040    105.012161
PG13 -13892.273739   6480.348429  21563.003112     19.086167
PG14  15808.050538   9702.855554 -18728.811318     -5.231189
PG15  -8110.636665  16384.302426  18824.412466   -223.647971
PG16  23762.200609  -1205.728035  12039.511167   -171.573143
PG17 -13822.339147 -18247.671924 -13087.057127    282.163548
PG18    917.836696  18374.465157  19137.588551    222.627811
PG19 -15370.717458 -10824.455900 -19077.368381   -143.997649
PG20  12289.580639  14602.105671  18480.637633    527.493595
PG21  10930.368388  11481.148744  22102.712059     12.710991
PG22  16347.483059 -11105.339348 -17469.565529   -777.485642
PG24 -13785.532729  22142.692937  -4013.539417    -14.438746
PG25   2492.903504  15747.186653 -21519.968990     13.955942
PG26  26266.270938   4695.233558   -140.543474    227.041345
PG27  14498.743642  -3145.996593  21897.237708   -322.889846
PG28 -21224.178857 -13187.332355   9360.295902    707.837209
PG29   2792.110110  25844.192572  -5417.408540   -129.929821
PG30 -11589.397222 -10619.306630  21454.998725   -243.570005
PG31  18359.209150    450.477206 -19385.792103    -49.723889
PG32  15692.407528  16548.919823 -13652.231852    301.604292
PJ01 -26762.295757  21396.657299  29662.036790   -285.887667
PJ02 -35360.519473  17679.329934 -10198.269070     -0.573357
PJ03 -19447.374165  29673.762523 -18244.847942     -4.207481
PJ07 -25410.612120  33651.634305     -6.942546      0.011829
PR01 -20449.074103 -14069.230250   5925.777641     63.210359
PR02 -13493.880761   1518.162793  21626.241435    432.034220
PR03    927.431735  14415.874166  21082.030910     16.940278
PR04  14773.131401  18909.872445   8684.368208     53.068812
PR05  20221.304987  12918.341190  -8665.829172     52.474124
PR07  -1427.356162 -14674.084497 -20763.522135    -37.647453
PR08 -14781.494134 -18928.057985  -8520.335915    -52.916517
PR09  21781.762916 -10946.811803   7398.597260    138.543704
PR11  -7878.861742  -8941.121011  22574.204413    -27.412347
PR12 -21449.263449     66.949648  13820.443423    139.804358
PR13 -23416.675512   9545.130304  -3394.404714    -40.104660
PR14 -11563.857345  13098.733911 -18579.440619     52.375027
PR15   6825.959817   9178.841463 -22777.927932    106.872814
PR16  21864.012934   -791.544726 -13236.621824     -4.213634
PR17  -6991.338411  24263.838554  -3476.812865    333.831602
PR18   1135.675296  21875.962332  13125.954464     39.155624
PR19   8288.969057   8402.664021  22606.875004    -98.344460
PR20  11792.805661 -12400.148511  18898.627822   -414.506193
PR21   6637.238465 -24515.938319   2497.574611   -132.002978
PR22  -2301.223655 -20302.440002 -15189.035358  29710.658419
PR23 -10495.960020   -836.348006 -23247.096285    312.764649
PR24 -12028.843660  13113.123392 -18260.597668      2.986799
PR26  11597.209075  -7859.033552  21329.639844   -392.900705
EOF
